ONEWEB-0080             
1 45426U 20020C   25181.46520177 -.00000437  00000+0 -12685-2 0  9993
2 45426  87.8838  91.1687 0002237  84.1763 275.9620 13.11416292256600
ONEWEB-0090             
1 45427U 20020D   25181.25580876 -.00000017  00000+0 -84647-4 0  9996
2 45427  87.8844  91.2111 0001966  76.8373 283.2974 13.11419095256545
ONEWEB-0061             
1 45428U 20020E   25181.28789862  .00000449  00000+0  12297-2 0  9993
2 45428  87.8837  91.1872 0001951  79.2469 280.8878 13.11414699256505
ONEWEB-0081             
1 45429U 20020F   25181.26937060  .00000530  00000+0  14581-2 0  9996
2 45429  87.8841  91.2109 0001866  83.6509 276.4831 13.11419377256614
ONEWEB-0069             
1 45430U 20020G   25181.48723535 -.00000159  00000+0 -48358-3 0  9991
2 45430  87.8843  91.1580 0001814  78.7165 281.4166 13.11417940256572
ONEWEB-0031             
1 45431U 20020H   25181.30667764 -.00000289  00000+0 -85171-3 0  9992
2 45431  87.8844  91.2246 0002149  75.7998 284.3368 13.11415398256534
ONEWEB-0027             
1 45432U 20020J   25181.41849965  .00000069  00000+0  14441-3 0  9996
2 45432  87.9058  75.8726 0001928  68.6625 291.4712 13.17648361260032
ONEWEB-0064             
1 45433U 20020K   25181.30498113 -.00000315  00000+0 -92557-3 0  9990
2 45433  87.8841  91.2178 0002068  74.4153 285.7203 13.11415564256567
